{"fetched_at":"2026-07-13T07:48:23.751Z","source":"https://celestrak.org/NORAD/elements/gp.php?NAME=ICEYE&FORMAT=JSON","constellation":"iceye","records":[{"OBJECT_NAME":"ICEYE-X40","OBJECT_ID":"2024-149CK","EPOCH":"2026-07-12T03:37:52.416768","CLASSIFICATION_TYPE":"U","MEAN_MOTION":14.98055622,"ECCENTRICITY":0.00037278,"INCLINATION":97.68,"RA_OF_ASC_NODE":269.2441,"ARG_OF_PERICENTER":13.8478,"MEAN_ANOMALY":346.2846,"EPHEMERIS_TYPE":0,"NORAD_CAT_ID":60549,"ELEMENT_SET_NO":999,"REV_AT_EPOCH":10381,"BSTAR":0.00011459305,"MEAN_MOTION_DOT":0.00001297,"MEAN_MOTION_DDOT":0},{"OBJECT_NAME":"ICEYE-X49","OBJECT_ID":"2024-247H","EPOCH":"2026-07-12T10:48:38.601792","CLASSIFICATION_TYPE":"U","MEAN_MOTION":15.13604993,"ECCENTRICITY":0.00013712,"INCLINATION":44.9966,"RA_OF_ASC_NODE":222.4534,"ARG_OF_PERICENTER":239.7873,"MEAN_ANOMALY":120.2869,"EPHEMERIS_TYPE":0,"NORAD_CAT_ID":62384,"ELEMENT_SET_NO":999,"REV_AT_EPOCH":8600,"BSTAR":0.000088120069,"MEAN_MOTION_DOT":0.00001352,"MEAN_MOTION_DDOT":0},{"OBJECT_NAME":"ICEYE-X47","OBJECT_ID":"2024-247N","EPOCH":"2026-07-12T11:48:47.039040","CLASSIFICATION_TYPE":"U","MEAN_MOTION":15.13479183,"ECCENTRICITY":0.0001701,"INCLINATION":44.9951,"RA_OF_ASC_NODE":221.8234,"ARG_OF_PERICENTER":333.9502,"MEAN_ANOMALY":26.129,"EPHEMERIS_TYPE":0,"NORAD_CAT_ID":62389,"ELEMENT_SET_NO":999,"REV_AT_EPOCH":8601,"BSTAR":0.000094639,"MEAN_MOTION_DOT":0.00001465,"MEAN_MOTION_DDOT":0},{"OBJECT_NAME":"ICEYE-X42","OBJECT_ID":"2025-009CT","EPOCH":"2026-07-12T18:16:41.221344","CLASSIFICATION_TYPE":"U","MEAN_MOTION":14.91849056,"ECCENTRICITY":0.0001288,"INCLINATION":97.739,"RA_OF_ASC_NODE":271.6158,"ARG_OF_PERICENTER":95.6625,"MEAN_ANOMALY":264.474,"EPHEMERIS_TYPE":0,"NORAD_CAT_ID":62698,"ELEMENT_SET_NO":999,"REV_AT_EPOCH":8110,"BSTAR":0.00013063,"MEAN_MOTION_DOT":0.00001264,"MEAN_MOTION_DDOT":0},{"OBJECT_NAME":"ICEYE-X41","OBJECT_ID":"2025-009CV","EPOCH":"2026-07-12T19:22:18.860736","CLASSIFICATION_TYPE":"U","MEAN_MOTION":14.96905633,"ECCENTRICITY":0.0000468,"INCLINATION":97.7063,"RA_OF_ASC_NODE":272.9619,"ARG_OF_PERICENTER":321.9359,"MEAN_ANOMALY":38.183,"EPHEMERIS_TYPE":0,"NORAD_CAT_ID":62700,"ELEMENT_SET_NO":999,"REV_AT_EPOCH":8124,"BSTAR":0.00014327,"MEAN_MOTION_DOT":0.00001587,"MEAN_MOTION_DDOT":0},{"OBJECT_NAME":"ICEYE-X45","OBJECT_ID":"2025-009DA","EPOCH":"2026-07-12T19:08:47.035968","CLASSIFICATION_TYPE":"U","MEAN_MOTION":15.00851672,"ECCENTRICITY":0.0001086,"INCLINATION":97.8401,"RA_OF_ASC_NODE":280.6954,"ARG_OF_PERICENTER":80.6151,"MEAN_ANOMALY":279.5195,"EPHEMERIS_TYPE":0,"NORAD_CAT_ID":62705,"ELEMENT_SET_NO":999,"REV_AT_EPOCH":8152,"BSTAR":0.00022899,"MEAN_MOTION_DOT":0.0000285,"MEAN_MOTION_DDOT":0},{"OBJECT_NAME":"ICEYE-X44","OBJECT_ID":"2025-009DC","EPOCH":"2026-07-12T18:26:17.911104","CLASSIFICATION_TYPE":"U","MEAN_MOTION":14.96158757,"ECCENTRICITY":0.0002652,"INCLINATION":97.7059,"RA_OF_ASC_NODE":272.4901,"ARG_OF_PERICENTER":78.2141,"MEAN_ANOMALY":281.9377,"EPHEMERIS_TYPE":0,"NORAD_CAT_ID":62707,"ELEMENT_SET_NO":999,"REV_AT_EPOCH":10376,"BSTAR":0.00021498,"MEAN_MOTION_DOT":0.00002364,"MEAN_MOTION_DDOT":0},{"OBJECT_NAME":"ICEYE-X48","OBJECT_ID":"2025-052AV","EPOCH":"2026-07-12T16:56:13.185888","CLASSIFICATION_TYPE":"U","MEAN_MOTION":14.98116429,"ECCENTRICITY":0.0003741,"INCLINATION":97.6839,"RA_OF_ASC_NODE":85.5013,"ARG_OF_PERICENTER":110.2798,"MEAN_ANOMALY":249.8827,"EPHEMERIS_TYPE":0,"NORAD_CAT_ID":63253,"ELEMENT_SET_NO":999,"REV_AT_EPOCH":7249,"BSTAR":0.00014214,"MEAN_MOTION_DOT":0.00001625,"MEAN_MOTION_DDOT":0},{"OBJECT_NAME":"ICEYE-X50","OBJECT_ID":"2025-052AX","EPOCH":"2026-07-12T20:29:37.307328","CLASSIFICATION_TYPE":"U","MEAN_MOTION":14.95360925,"ECCENTRICITY":0.0003428,"INCLINATION":97.6862,"RA_OF_ASC_NODE":85.2533,"ARG_OF_PERICENTER":106.7451,"MEAN_ANOMALY":253.4146,"EPHEMERIS_TYPE":0,"NORAD_CAT_ID":63255,"ELEMENT_SET_NO":999,"REV_AT_EPOCH":7248,"BSTAR":0.00012096,"MEAN_MOTION_DOT":0.00001278,"MEAN_MOTION_DDOT":0},{"OBJECT_NAME":"ICEYE-X51","OBJECT_ID":"2025-052AZ","EPOCH":"2026-07-12T20:36:35.222400","CLASSIFICATION_TYPE":"U","MEAN_MOTION":15.00885665,"ECCENTRICITY":0.0002025,"INCLINATION":97.7607,"RA_OF_ASC_NODE":88.9077,"ARG_OF_PERICENTER":68.2103,"MEAN_ANOMALY":291.9336,"EPHEMERIS_TYPE":0,"NORAD_CAT_ID":63257,"ELEMENT_SET_NO":999,"REV_AT_EPOCH":7265,"BSTAR":0.00021219,"MEAN_MOTION_DOT":0.0000264,"MEAN_MOTION_DDOT":0},{"OBJECT_NAME":"ICEYE-X46","OBJECT_ID":"2025-052BA","EPOCH":"2026-07-12T15:35:50.229024","CLASSIFICATION_TYPE":"U","MEAN_MOTION":14.95360933,"ECCENTRICITY":0.0001701,"INCLINATION":97.6863,"RA_OF_ASC_NODE":85.0521,"ARG_OF_PERICENTER":84.3638,"MEAN_ANOMALY":275.7777,"EPHEMERIS_TYPE":0,"NORAD_CAT_ID":63258,"ELEMENT_SET_NO":999,"REV_AT_EPOCH":7245,"BSTAR":0.00013202,"MEAN_MOTION_DOT":0.000014,"MEAN_MOTION_DDOT":0},{"OBJECT_NAME":"ICEYE-X54","OBJECT_ID":"2025-135AU","EPOCH":"2026-07-12T19:10:55.878240","CLASSIFICATION_TYPE":"U","MEAN_MOTION":14.94723957,"ECCENTRICITY":0.0001894,"INCLINATION":97.7744,"RA_OF_ASC_NODE":307.9772,"ARG_OF_PERICENTER":188.5847,"MEAN_ANOMALY":171.5341,"EPHEMERIS_TYPE":0,"NORAD_CAT_ID":64570,"ELEMENT_SET_NO":999,"REV_AT_EPOCH":5772,"BSTAR":0.00018291,"MEAN_MOTION_DOT":0.00001928,"MEAN_MOTION_DDOT":0},{"OBJECT_NAME":"ICEYE-X52","OBJECT_ID":"2025-135AW","EPOCH":"2026-07-12T20:41:49.608672","CLASSIFICATION_TYPE":"U","MEAN_MOTION":14.93647369,"ECCENTRICITY":0.0001059,"INCLINATION":97.7767,"RA_OF_ASC_NODE":307.8323,"ARG_OF_PERICENTER":196.3601,"MEAN_ANOMALY":163.7585,"EPHEMERIS_TYPE":0,"NORAD_CAT_ID":64572,"ELEMENT_SET_NO":999,"REV_AT_EPOCH":5771,"BSTAR":0.00012608,"MEAN_MOTION_DOT":0.00001275,"MEAN_MOTION_DDOT":0},{"OBJECT_NAME":"ICEYE-X56","OBJECT_ID":"2025-135AY","EPOCH":"2026-07-12T20:31:31.804608","CLASSIFICATION_TYPE":"U","MEAN_MOTION":14.95753387,"ECCENTRICITY":0.0001209,"INCLINATION":97.7763,"RA_OF_ASC_NODE":308.6164,"ARG_OF_PERICENTER":204.0059,"MEAN_ANOMALY":156.1106,"EPHEMERIS_TYPE":0,"NORAD_CAT_ID":64574,"ELEMENT_SET_NO":999,"REV_AT_EPOCH":5776,"BSTAR":0.00018339,"MEAN_MOTION_DOT":0.00001986,"MEAN_MOTION_DDOT":0},{"OBJECT_NAME":"ICEYE-X57","OBJECT_ID":"2025-135BC","EPOCH":"2026-07-12T19:13:42.854880","CLASSIFICATION_TYPE":"U","MEAN_MOTION":15.00849107,"ECCENTRICITY":0.0002091,"INCLINATION":97.8016,"RA_OF_ASC_NODE":310.347,"ARG_OF_PERICENTER":61.2586,"MEAN_ANOMALY":298.8847,"EPHEMERIS_TYPE":0,"NORAD_CAT_ID":64578,"ELEMENT_SET_NO":999,"REV_AT_EPOCH":5786,"BSTAR":0.00021003,"MEAN_MOTION_DOT":0.00002609,"MEAN_MOTION_DDOT":0},{"OBJECT_NAME":"ICEYE-X55","OBJECT_ID":"2025-135BF","EPOCH":"2026-07-12T20:41:22.460064","CLASSIFICATION_TYPE":"U","MEAN_MOTION":14.95353684,"ECCENTRICITY":0.0001822,"INCLINATION":97.7764,"RA_OF_ASC_NODE":308.4503,"ARG_OF_PERICENTER":246.7099,"MEAN_ANOMALY":113.393,"EPHEMERIS_TYPE":0,"NORAD_CAT_ID":64581,"ELEMENT_SET_NO":999,"REV_AT_EPOCH":5775,"BSTAR":0.00020118,"MEAN_MOTION_DOT":0.00002162,"MEAN_MOTION_DDOT":0}]}
