ICEYE-X40               
1 60549U 24149CK  26193.15130112  .00001297  00000+0  11459-3 0  9990
2 60549  97.6800 269.2441 0003727  13.8478 346.2846 14.98055622103812
ICEYE-X49               
1 62384U 24247H   26193.45044678  .00001352  00000+0  88120-4 0  9994
2 62384  44.9966 222.4534 0001371 239.7873 120.2869 15.13604993 86009
ICEYE-X47               
1 62389U 24247N   26193.49221110  .00001465  00000+0  94639-4 0  9998
2 62389  44.9951 221.8234 0001701 333.9502  26.1290 15.13479183 86015
ICEYE-X42               
1 62698U 25009CT  26193.76158821  .00001264  00000+0  13063-3 0  9994
2 62698  97.7390 271.6158 0001288  95.6625 264.4740 14.91849056 81104
ICEYE-X41               
1 62700U 25009CV  26193.80716274  .00001587  00000+0  14327-3 0  9997
2 62700  97.7063 272.9619 0000468 321.9359  38.1830 14.96905633 81249
ICEYE-X45               
1 62705U 25009DA  26193.79776662  .00002850  00000+0  22899-3 0  9994
2 62705  97.8401 280.6954 0001086  80.6151 279.5195 15.00851672 81520
ICEYE-X44               
1 62707U 25009DC  26193.76826286  .00002364  00000+0  21498-3 0  9995
2 62707  97.7059 272.4901 0002652  78.2141 281.9377 14.96158757103761
ICEYE-X48               
1 63253U 25052AV  26193.70570817  .00001625  00000+0  14214-3 0  9997
2 63253  97.6839  85.5013 0003741 110.2798 249.8827 14.98116429 72495
ICEYE-X50               
1 63255U 25052AX  26193.85390402  .00001278  00000+0  12096-3 0  9995
2 63255  97.6862  85.2533 0003428 106.7451 253.4146 14.95360925 72488
ICEYE-X51               
1 63257U 25052AZ  26193.85874100  .00002640  00000+0  21219-3 0  9990
2 63257  97.7607  88.9077 0002025  68.2103 291.9336 15.00885665 72656
ICEYE-X46               
1 63258U 25052BA  26193.64988691  .00001400  00000+0  13202-3 0  9995
2 63258  97.6863  85.0521 0001701  84.3638 275.7777 14.95360933 72450
ICEYE-X54               
1 64570U 25135AU  26193.79925785  .00001928  00000+0  18291-3 0  9994
2 64570  97.7744 307.9772 0001894 188.5847 171.5341 14.94723957 57724
ICEYE-X52               
1 64572U 25135AW  26193.86237973  .00001275  00000+0  12608-3 0  9990
2 64572  97.7767 307.8323 0001059 196.3601 163.7585 14.93647369 57713
ICEYE-X56               
1 64574U 25135AY  26193.85522922  .00001986  00000+0  18339-3 0  9998
2 64574  97.7763 308.6164 0001209 204.0059 156.1106 14.95753387 57764
ICEYE-X57               
1 64578U 25135BC  26193.80119045  .00002609  00000+0  21003-3 0  9990
2 64578  97.8016 310.3470 0002091  61.2586 298.8847 15.00849107 57868
ICEYE-X55               
1 64581U 25135BF  26193.86206551  .00002162  00000+0  20118-3 0  9999
2 64581  97.7764 308.4503 0001822 246.7099 113.3930 14.95353684 57751
